OBJECT_NAME,OBJECT_ID,EPOCH,MEAN_MOTION,ECCENTRICITY,INCLINATION,RA_OF_ASC_NODE,ARG_OF_PERICENTER,MEAN_ANOMALY,EPHEMERIS_TYPE,CLASSIFICATION_TYPE,NORAD_CAT_ID,ELEMENT_SET_NO,REV_AT_EPOCH,BSTAR,MEAN_MOTION_DOT,MEAN_MOTION_DDOT
LEMUR-2-LAILA,2025-276DQ,2026-06-09T11:01:07.876416,15.21186394,.00017139,97.4174,234.4615,145.3115,214.8233,0,U,66776,999,2927,.22871762E-3,.503E-4,0
LEMUR-2-CELIJO-SB-PK,2025-276DW,2026-06-09T10:21:17.653248,14.99878908,.00088723,97.5278,231.4628,151.1173,209.0543,0,U,66781,999,2146,.42627306E-3,.5232E-4,0
LEMUR-2-FINNIAN,2025-276DX,2026-06-08T17:50:41.392032,15.00271962,.00085774,97.5259,231.0053,114.2544,245.9577,0,U,66782,999,1873,.57463684E-3,.7148E-4,0
LEMUR-2-STARLIGHT,2025-276DY,2026-06-08T03:48:02.107872,14.98948334,.00153528,97.5274,230.1048,153.7795,206.4209,0,U,66783,999,2884,.45215688E-3,.5428E-4,0
LEMUR-2-TARTIFLETTE,2025-276DZ,2026-06-09T10:12:28.389312,14.98988047,.00139744,97.5280,231.3342,156.1665,204.0208,0,U,66784,999,2903,.4910879E-3,.5905E-4,0
LEMUR-2-VUKASIN,2025-276EA,2026-06-09T10:12:58.886784,15.00281154,.00062838,97.5310,231.6124,142.5144,217.6520,0,U,66785,999,2898,.43854584E-3,.544E-4,0
LEMUR-2-HOTSPUR-TOM,2025-276EB,2026-06-09T03:36:22.038912,14.98860681,.00153592,97.5255,231.0522,152.0796,208.1254,0,U,66786,999,2892,.52222614E-3,.6265E-4,0
LEMUR-2-MYRA,2025-276EC,2026-06-09T10:57:17.508096,15.00138577,.00156656,97.5220,231.5921,167.1469,193.0158,0,U,66787,999,2905,.47734063E-3,.5916E-4,0
LEMUR-2 FIKRETDENGIZ,2026-004A,2026-06-09T12:53:23.392320,14.88269820,.00094764,97.8014,159.2128,155.1838,204.9837,0,U,67363,999,2214,.42361534E-3,.3863E-4,0
TWILIGHT-1 OBJECT B,2026-004B,2026-06-09T05:19:49.841760,14.87675373,.0009444,97.8059,158.9215,147.3595,212.8206,0,U,67364,999,2210,.19791E-3,.1749E-4,0
LEMUR-2-MARIO-SOUSA,2026-004C,2026-06-09T12:31:10.394112,14.88452018,.0009029,97.7990,159.1943,155.8805,204.2836,0,U,67365,999,2215,.4075289E-3,.3731E-4,0
LEMUR-2-SONNENBLUME,2026-004E,2026-06-09T12:27:28.111104,14.88276599,.00085403,97.7983,159.1792,157.5757,202.5834,0,U,67367,999,2215,.25329295E-3,.2287E-4,0
LEMUR-2-WOBLER,2026-004F,2026-06-09T12:19:32.140416,14.88464985,.0008982,97.8038,159.2884,147.3876,212.7897,0,U,67368,999,2215,.34576755E-3,.3158E-4,0
LEMUR-2-GRAM-E-SUE,2026-004H,2026-06-09T12:05:47.548320,14.88437411,.00076089,97.7972,159.1789,157.9023,202.2523,0,U,67370,999,2215,.20996798E-3,.1894E-4,0
LEMUR-2-KATIE,2026-004AA,2026-06-09T05:32:18.476160,14.89999040,.0004739,97.8037,159.3436,109.1895,250.9836,0,U,67387,999,2212,.39038E-3,.371E-4,0
LEMUR-2-HCS-BAZUS,2026-004AB,2026-06-09T11:57:50.695488,14.89999049,.00043409,97.8024,159.5900,104.3095,255.8605,0,U,67388,999,2216,.44037528E-3,.4193E-4,0
