LEMUR-2-LAILA           
1 66776U 25276DQ  26160.45911894  .00005030  00000+0  22872-3 0  9991
2 66776  97.4174 234.4615 0001713 145.3115 214.8233 15.21186394 29276
LEMUR-2-CELIJO-SB-PK    
1 66781U 25276DW  26160.43145432  .00005232  00000+0  42627-3 0  9996
2 66781  97.5278 231.4628 0008872 151.1173 209.0543 14.99878908 21467
LEMUR-2-FINNIAN         
1 66782U 25276DX  26159.74353463  .00007148  00000+0  57464-3 0  9997
2 66782  97.5259 231.0053 0008577 114.2544 245.9577 15.00271962 18731
LEMUR-2-STARLIGHT       
1 66783U 25276DY  26159.15835773  .00005428  00000+0  45216-3 0  9993
2 66783  97.5274 230.1048 0015352 153.7795 206.4209 14.98948334 28845
LEMUR-2-TARTIFLETTE     
1 66784U 25276DZ  26160.42532858  .00005905  00000+0  49109-3 0  9999
2 66784  97.5280 231.3342 0013974 156.1665 204.0208 14.98988047 29034
LEMUR-2-VUKASIN         
1 66785U 25276EA  26160.42568156  .00005440  00000+0  43855-3 0  9996
2 66785  97.5310 231.6124 0006283 142.5144 217.6520 15.00281154 28985
LEMUR-2-HOTSPUR-TOM     
1 66786U 25276EB  26160.15025508  .00006265  00000+0  52223-3 0  9991
2 66786  97.5255 231.0522 0015359 152.0796 208.1254 14.98860681 28920
LEMUR-2-MYRA            
1 66787U 25276EC  26160.45645264  .00005916  00000+0  47734-3 0  9995
2 66787  97.5220 231.5921 0015665 167.1469 193.0158 15.00138577 29051
LEMUR-2 FIKRETDENGIZ    
1 67363U 26004A   26160.53707630  .00003863  00000+0  42362-3 0  9992
2 67363  97.8014 159.2128 0009476 155.1838 204.9837 14.88269820 22141
TWILIGHT-1 OBJECT B     
1 67364U 26004B   26160.22210465  .00001749  00000+0  19791-3 0  9995
2 67364  97.8059 158.9215 0009444 147.3595 212.8206 14.87675373 22109
LEMUR-2-MARIO-SOUSA     
1 67365U 26004C   26160.52164808  .00003731  00000+0  40753-3 0  9993
2 67365  97.7990 159.1943 0009029 155.8805 204.2836 14.88452018 22150
LEMUR-2-SONNENBLUME     
1 67367U 26004E   26160.51907536  .00002287  00000+0  25329-3 0  9994
2 67367  97.7983 159.1792 0008540 157.5757 202.5834 14.88276599 22155
LEMUR-2-WOBLER          
1 67368U 26004F   26160.51356644  .00003158  00000+0  34577-3 0  9996
2 67368  97.8038 159.2884 0008982 147.3876 212.7897 14.88464985 22150
LEMUR-2-GRAM-E-SUE      
1 67370U 26004H   26160.50402255  .00001894  00000+0  20997-3 0  9994
2 67370  97.7972 159.1789 0007608 157.9023 202.2523 14.88437411 22151
LEMUR-2-KATIE           
1 67387U 26004AA  26160.23076940  .00003710  00000+0  39038-3 0  9995
2 67387  97.8037 159.3436 0004739 109.1895 250.9836 14.89999040 22127
LEMUR-2-HCS-BAZUS       
1 67388U 26004AB  26160.49850342  .00004193  00000+0  44038-3 0  9992
2 67388  97.8024 159.5900 0004340 104.3095 255.8605 14.89999049 22160
